[{"OBJECT_NAME":"ONEWEB-0171","OBJECT_ID":"2021-025AE","EPOCH":"2026-03-03T06:48:37.302048","MEAN_MOTION":13.13470423,"ECCENTRICITY":0.0001779,"INCLINATION":87.9038,"RA_OF_ASC_NODE":341.2959,"ARG_OF_PERICENTER":82.1958,"MEAN_ANOMALY":277.9373,"EPHEMERIS_TYPE":0,"CLASSIFICATION_TYPE":"U","NORAD_CAT_ID":48070,"ELEMENT_SET_NO":999,"REV_AT_EPOCH":23971,"BSTAR":-0.00045714,"MEAN_MOTION_DOT":-1.54e-6,"MEAN_MOTION_DDOT":0},{"OBJECT_NAME":"ONEWEB-0172","OBJECT_ID":"2021-025AF","EPOCH":"2026-03-03T06:19:23.212704","MEAN_MOTION":13.1346953,"ECCENTRICITY":0.0001895,"INCLINATION":87.904,"RA_OF_ASC_NODE":341.2871,"ARG_OF_PERICENTER":82.3735,"MEAN_ANOMALY":277.7609,"EPHEMERIS_TYPE":0,"CLASSIFICATION_TYPE":"U","NORAD_CAT_ID":48071,"ELEMENT_SET_NO":999,"REV_AT_EPOCH":24060,"BSTAR":-0.00070729,"MEAN_MOTION_DOT":-2.46e-6,"MEAN_MOTION_DDOT":0},{"OBJECT_NAME":"ONEWEB-0174","OBJECT_ID":"2021-025AG","EPOCH":"2026-03-03T07:42:16.110720","MEAN_MOTION":13.13468298,"ECCENTRICITY":0.0001842,"INCLINATION":87.904,"RA_OF_ASC_NODE":341.2772,"ARG_OF_PERICENTER":73.9165,"MEAN_ANOMALY":286.2167,"EPHEMERIS_TYPE":0,"CLASSIFICATION_TYPE":"U","NORAD_CAT_ID":48072,"ELEMENT_SET_NO":999,"REV_AT_EPOCH":23993,"BSTAR":-9.7357e-5,"MEAN_MOTION_DOT":-2.3e-7,"MEAN_MOTION_DDOT":0},{"OBJECT_NAME":"ONEWEB-0175","OBJECT_ID":"2021-025AH","EPOCH":"2026-03-03T06:36:27.200448","MEAN_MOTION":13.13469595,"ECCENTRICITY":0.0001792,"INCLINATION":87.9046,"RA_OF_ASC_NODE":341.2611,"ARG_OF_PERICENTER":89.9834,"MEAN_ANOMALY":270.1501,"EPHEMERIS_TYPE":0,"CLASSIFICATION_TYPE":"U","NORAD_CAT_ID":48073,"ELEMENT_SET_NO":999,"REV_AT_EPOCH":23958,"BSTAR":-9.6814e-5,"MEAN_MOTION_DOT":-2.3e-7,"MEAN_MOTION_DDOT":0},{"OBJECT_NAME":"ONEWEB-0177","OBJECT_ID":"2021-025AJ","EPOCH":"2026-03-03T06:53:30.890976","MEAN_MOTION":13.1346975,"ECCENTRICITY":0.0001965,"INCLINATION":87.905,"RA_OF_ASC_NODE":341.2799,"ARG_OF_PERICENTER":76.2111,"MEAN_ANOMALY":283.9237,"EPHEMERIS_TYPE":0,"CLASSIFICATION_TYPE":"U","NORAD_CAT_ID":48074,"ELEMENT_SET_NO":999,"REV_AT_EPOCH":23977,"BSTAR":0.00061763,"MEAN_MOTION_DOT":2.38e-6,"MEAN_MOTION_DDOT":0},{"OBJECT_NAME":"ONEWEB-0178","OBJECT_ID":"2021-025AK","EPOCH":"2026-03-03T07:20:32.237088","MEAN_MOTION":13.1346894,"ECCENTRICITY":0.0001911,"INCLINATION":87.9033,"RA_OF_ASC_NODE":341.3046,"ARG_OF_PERICENTER":85.3596,"MEAN_ANOMALY":274.7751,"EPHEMERIS_TYPE":0,"CLASSIFICATION_TYPE":"U","NORAD_CAT_ID":48075,"ELEMENT_SET_NO":999,"REV_AT_EPOCH":23982,"BSTAR":0.00076978,"MEAN_MOTION_DOT":2.94e-6,"MEAN_MOTION_DDOT":0},{"OBJECT_NAME":"ONEWEB-0108","OBJECT_ID":"2021-025AL","EPOCH":"2026-03-03T06:21:48.977280","MEAN_MOTION":13.13469685,"ECCENTRICITY":0.0001593,"INCLINATION":87.9046,"RA_OF_ASC_NODE":341.2726,"ARG_OF_PERICENTER":72.4127,"MEAN_ANOMALY":287.7176,"EPHEMERIS_TYPE":0,"CLASSIFICATION_TYPE":"U","NORAD_CAT_ID":48076,"ELEMENT_SET_NO":999,"REV_AT_EPOCH":23974,"BSTAR":-0.00061736,"MEAN_MOTION_DOT":-2.13e-6,"MEAN_MOTION_DDOT":0},{"OBJECT_NAME":"ONEWEB-0169","OBJECT_ID":"2021-025AM","EPOCH":"2026-03-03T07:08:08.238048","MEAN_MOTION":13.13469027,"ECCENTRICITY":0.0001638,"INCLINATION":87.9041,"RA_OF_ASC_NODE":341.2825,"ARG_OF_PERICENTER":73.6989,"MEAN_ANOMALY":286.432,"EPHEMERIS_TYPE":0,"CLASSIFICATION_TYPE":"U","NORAD_CAT_ID":48077,"ELEMENT_SET_NO":999,"REV_AT_EPOCH":23840,"BSTAR":0.00087804,"MEAN_MOTION_DOT":3.33e-6,"MEAN_MOTION_DDOT":0},{"OBJECT_NAME":"ONEWEB-0176","OBJECT_ID":"2021-031A","EPOCH":"2026-03-03T05:21:09.842112","MEAN_MOTION":13.1450167,"ECCENTRICITY":0.0001722,"INCLINATION":87.9,"RA_OF_ASC_NODE":310.8408,"ARG_OF_PERICENTER":81.9263,"MEAN_ANOMALY":278.2062,"EPHEMERIS_TYPE":0,"CLASSIFICATION_TYPE":"U","NORAD_CAT_ID":48210,"ELEMENT_SET_NO":999,"REV_AT_EPOCH":23439,"BSTAR":0.00037696,"MEAN_MOTION_DOT":1.53e-6,"MEAN_MOTION_DDOT":0},{"OBJECT_NAME":"ONEWEB-0184","OBJECT_ID":"2021-031B","EPOCH":"2026-03-03T04:42:20.397888","MEAN_MOTION":13.14502474,"ECCENTRICITY":0.0002037,"INCLINATION":87.901,"RA_OF_ASC_NODE":310.8356,"ARG_OF_PERICENTER":105.2582,"MEAN_ANOMALY":254.8773,"EPHEMERIS_TYPE":0,"CLASSIFICATION_TYPE":"U","NORAD_CAT_ID":48211,"ELEMENT_SET_NO":999,"REV_AT_EPOCH":23436,"BSTAR":0.00019689,"MEAN_MOTION_DOT":8.6e-7,"MEAN_MOTION_DDOT":0},{"OBJECT_NAME":"ONEWEB-0179","OBJECT_ID":"2021-031C","EPOCH":"2026-03-03T04:00:05.844384","MEAN_MOTION":13.14502314,"ECCENTRICITY":0.0001808,"INCLINATION":87.9002,"RA_OF_ASC_NODE":310.8443,"ARG_OF_PERICENTER":73.2084,"MEAN_ANOMALY":286.9244,"EPHEMERIS_TYPE":0,"CLASSIFICATION_TYPE":"U","NORAD_CAT_ID":48212,"ELEMENT_SET_NO":999,"REV_AT_EPOCH":23440,"BSTAR":-0.00025215,"MEAN_MOTION_DOT":-8.1e-7,"MEAN_MOTION_DDOT":0},{"OBJECT_NAME":"ONEWEB-0180","OBJECT_ID":"2021-031D","EPOCH":"2026-03-03T04:46:54.542496","MEAN_MOTION":13.14502064,"ECCENTRICITY":0.0001975,"INCLINATION":87.9003,"RA_OF_ASC_NODE":310.839,"ARG_OF_PERICENTER":81.5008,"MEAN_ANOMALY":278.6345,"EPHEMERIS_TYPE":0,"CLASSIFICATION_TYPE":"U","NORAD_CAT_ID":48213,"ELEMENT_SET_NO":999,"REV_AT_EPOCH":23429,"BSTAR":0.0003472,"MEAN_MOTION_DOT":1.42e-6,"MEAN_MOTION_DDOT":0},{"OBJECT_NAME":"ONEWEB-0218","OBJECT_ID":"2021-031E","EPOCH":"2026-03-03T05:18:53.172864","MEAN_MOTION":13.14501614,"ECCENTRICITY":0.0002281,"INCLINATION":87.9003,"RA_OF_ASC_NODE":310.834,"ARG_OF_PERICENTER":99.293,"MEAN_ANOMALY":260.8457,"EPHEMERIS_TYPE":0,"CLASSIFICATION_TYPE":"U","NORAD_CAT_ID":48214,"ELEMENT_SET_NO":999,"REV_AT_EPOCH":23445,"BSTAR":0.0004317,"MEAN_MOTION_DOT":1.73e-6,"MEAN_MOTION_DDOT":0},{"OBJECT_NAME":"ONEWEB-0209","OBJECT_ID":"2021-031F","EPOCH":"2026-03-03T05:02:53.455488","MEAN_MOTION":13.14501582,"ECCENTRICITY":0.0001848,"INCLINATION":87.899,"RA_OF_ASC_NODE":310.8638,"ARG_OF_PERICENTER":76.2435,"MEAN_ANOMALY":283.89,"EPHEMERIS_TYPE":0,"CLASSIFICATION_TYPE":"U","NORAD_CAT_ID":48215,"ELEMENT_SET_NO":999,"REV_AT_EPOCH":23445,"BSTAR":0.0007449,"MEAN_MOTION_DOT":2.89e-6,"MEAN_MOTION_DDOT":0},{"OBJECT_NAME":"ONEWEB-0198","OBJECT_ID":"2021-031G","EPOCH":"2026-03-03T04:40:15.319200","MEAN_MOTION":13.14502234,"ECCENTRICITY":0.0002082,"INCLINATION":87.8994,"RA_OF_ASC_NODE":310.8655,"ARG_OF_PERICENTER":85.4652,"MEAN_ANOMALY":274.6715,"EPHEMERIS_TYPE":0,"CLASSIFICATION_TYPE":"U","NORAD_CAT_ID":48216,"ELEMENT_SET_NO":999,"REV_AT_EPOCH":23456,"BSTAR":0.00010078,"MEAN_MOTION_DOT":5.0e-7,"MEAN_MOTION_DDOT":0},{"OBJECT_NAME":"ONEWEB-0189","OBJECT_ID":"2021-031H","EPOCH":"2026-03-03T04:58:19.615872","MEAN_MOTION":13.14501819,"ECCENTRICITY":0.0001983,"INCLINATION":87.8998,"RA_OF_ASC_NODE":310.8399,"ARG_OF_PERICENTER":85.2673,"MEAN_ANOMALY":274.8683,"EPHEMERIS_TYPE":0,"CLASSIFICATION_TYPE":"U","NORAD_CAT_ID":48217,"ELEMENT_SET_NO":999,"REV_AT_EPOCH":23430,"BSTAR":0.0006843,"MEAN_MOTION_DOT":2.66e-6,"MEAN_MOTION_DDOT":0},{"OBJECT_NAME":"ONEWEB-0196","OBJECT_ID":"2021-031J","EPOCH":"2026-03-03T04:26:21.274944","MEAN_MOTION":13.14502168,"ECCENTRICITY":0.0001828,"INCLINATION":87.8999,"RA_OF_ASC_NODE":310.8548,"ARG_OF_PERICENTER":80.8286,"MEAN_ANOMALY":279.305,"EPHEMERIS_TYPE":0,"CLASSIFICATION_TYPE":"U","NORAD_CAT_ID":48218,"ELEMENT_SET_NO":999,"REV_AT_EPOCH":23430,"BSTAR":-0.00030446,"MEAN_MOTION_DOT":-1.0e-6,"MEAN_MOTION_DDOT":0}]
