ONEWEB-0171             
1 48070U 21025AE  26062.28376507 -.00000154  00000+0 -45714-3 0  9998
2 48070  87.9038 341.2959 0001779  82.1958 277.9373 13.13470423239714
ONEWEB-0172             
1 48071U 21025AF  26062.26346311 -.00000246  00000+0 -70729-3 0  9993
2 48071  87.9040 341.2871 0001895  82.3735 277.7609 13.13469530240602
ONEWEB-0174             
1 48072U 21025AG  26062.32101980 -.00000023  00000+0 -97357-4 0  9992
2 48072  87.9040 341.2772 0001842  73.9165 286.2167 13.13468298239936
ONEWEB-0175             
1 48073U 21025AH  26062.27531482 -.00000023  00000+0 -96814-4 0  9998
2 48073  87.9046 341.2611 0001792  89.9834 270.1501 13.13469595239585
ONEWEB-0177             
1 48074U 21025AJ  26062.28716309  .00000238  00000+0  61763-3 0  9993
2 48074  87.9050 341.2799 0001965  76.2111 283.9237 13.13469750239779
ONEWEB-0178             
1 48075U 21025AK  26062.30592867  .00000294  00000+0  76978-3 0  9994
2 48075  87.9033 341.3046 0001911  85.3596 274.7751 13.13468940239821
ONEWEB-0108             
1 48076U 21025AL  26062.26515020 -.00000213  00000+0 -61736-3 0  9995
2 48076  87.9046 341.2726 0001593  72.4127 287.7176 13.13469685239746
ONEWEB-0169             
1 48077U 21025AM  26062.29731757  .00000333  00000+0  87804-3 0  9991
2 48077  87.9041 341.2825 0001638  73.6989 286.4320 13.13469027238400
ONEWEB-0176             
1 48210U 21031A   26062.22303058  .00000153  00000+0  37696-3 0  9993
2 48210  87.9000 310.8408 0001722  81.9263 278.2062 13.14501670234392
ONEWEB-0184             
1 48211U 21031B   26062.19606942  .00000086  00000+0  19689-3 0  9995
2 48211  87.9010 310.8356 0002037 105.2582 254.8773 13.14502474234369
ONEWEB-0179             
1 48212U 21031C   26062.16673431 -.00000081  00000+0 -25215-3 0  9999
2 48212  87.9002 310.8443 0001808  73.2084 286.9244 13.14502314234401
ONEWEB-0180             
1 48213U 21031D   26062.19924239  .00000142  00000+0  34720-3 0  9995
2 48213  87.9003 310.8390 0001975  81.5008 278.6345 13.14502064234296
ONEWEB-0218             
1 48214U 21031E   26062.22144876  .00000173  00000+0  43170-3 0  9994
2 48214  87.9003 310.8340 0002281  99.2930 260.8457 13.14501614234458
ONEWEB-0209             
1 48215U 21031F   26062.21034092  .00000289  00000+0  74490-3 0  9999
2 48215  87.8990 310.8638 0001848  76.2435 283.8900 13.14501582234458
ONEWEB-0198             
1 48216U 21031G   26062.19462175  .00000050  00000+0  10078-3 0  9992
2 48216  87.8994 310.8655 0002082  85.4652 274.6715 13.14502234234565
ONEWEB-0189             
1 48217U 21031H   26062.20717148  .00000266  00000+0  68430-3 0  9992
2 48217  87.8998 310.8399 0001983  85.2673 274.8683 13.14501819234301
ONEWEB-0196             
1 48218U 21031J   26062.18496846 -.00000100  00000+0 -30446-3 0  9994
2 48218  87.8999 310.8548 0001828  80.8286 279.3050 13.14502168234304
